[{"OBJECT_NAME":"POPACS 2","OBJECT_ID":"2013-055E","EPOCH":"2026-03-09T12:13:44.500512","MEAN_MOTION":14.87802959,"ECCENTRICITY":0.04307455,"INCLINATION":80.9893,"RA_OF_ASC_NODE":258.0384,"ARG_OF_PERICENTER":153.4128,"MEAN_ANOMALY":208.9906,"EPHEMERIS_TYPE":0,"CLASSIFICATION_TYPE":"U","NORAD_CAT_ID":39269,"ELEMENT_SET_NO":999,"REV_AT_EPOCH":64837,"BSTAR":0.00051934698,"MEAN_MOTION_DOT":0.00029878,"MEAN_MOTION_DDOT":0},{"OBJECT_NAME":"CZ-6A DEB","OBJECT_ID":"2022-151AFL","EPOCH":"2026-03-09T22:45:51.403968","MEAN_MOTION":14.12324821,"ECCENTRICITY":0.00730041,"INCLINATION":98.8335,"RA_OF_ASC_NODE":67.4251,"ARG_OF_PERICENTER":293.2582,"MEAN_ANOMALY":66.0916,"EPHEMERIS_TYPE":0,"CLASSIFICATION_TYPE":"U","NORAD_CAT_ID":56636,"ELEMENT_SET_NO":999,"REV_AT_EPOCH":15289,"BSTAR":0.001087099,"MEAN_MOTION_DOT":2.009e-5,"MEAN_MOTION_DDOT":0}]
